{
  "type": "FeatureCollection",
  "features": [
    {
      "type": "Feature",
      "properties": {
        "norad_id": 30232,
        "name": "FENGYUN 1C DEB",
        "group": "fengyun-1c-debris",
        "lat": 12.180127701451651,
        "lon": 5.679488905062019,
        "alt_km": 777.2277399212553,
        "timestamp": "2025-12-09T18:55:17.506702+00:00",
        "meta_object_name": "FENGYUN 1C DEB",
        "meta_object_id": "1999-025WR",
        "meta_epoch": "2025-12-09T11:51:20.558016",
        "meta_mean_motion": 14.63550977,
        "meta_eccentricity": 0.01362198,
        "meta_inclination": 98.6932,
        "meta_ra_of_asc_node": 183.4766,
        "meta_arg_of_pericenter": 359.8328,
        "meta_mean_anomaly": 57.1497,
        "meta_ephemeris_type": 0,
        "meta_classification_type": "U",
        "meta_norad_cat_id": 30232,
        "meta_element_set_no": 999,
        "meta_rev_at_epoch": 99704,
        "meta_bstar": 0.00099933354,
        "meta_mean_motion_dot": 5.876e-05,
        "meta_mean_motion_ddot": 0,
        "tle_line1": "1 30232U 99025WR  25343.49398794  .00005876  00000+0  99933-3 0  9996",
        "tle_line2": "2 30232  98.6932 183.4766 0136219 359.8328  57.1497 14.63550977997043"
      },
      "geometry": {
        "type": "Point",
        "coordinates": [
          5.679488905062019,
          12.180127701451651
        ]
      }
    },
    {
      "type": "Feature",
      "properties": {
        "norad_id": 30234,
        "name": "FENGYUN 1C DEB",
        "group": "fengyun-1c-debris",
        "lat": -25.4923547578707,
        "lon": 170.4986156949954,
        "alt_km": 867.1126908726692,
        "timestamp": "2025-12-09T18:55:17.506712+00:00",
        "meta_object_name": "FENGYUN 1C DEB",
        "meta_object_id": "1999-025WT",
        "meta_epoch": "2025-12-08T23:35:37.629024",
        "meta_mean_motion": 14.1685623,
        "meta_eccentricity": 0.0067071,
        "meta_inclination": 98.6338,
        "meta_ra_of_asc_node": 353.8714,
        "meta_arg_of_pericenter": 85.8232,
        "meta_mean_anomaly": 333.8364,
        "meta_ephemeris_type": 0,
        "meta_classification_type": "U",
        "meta_norad_cat_id": 30234,
        "meta_element_set_no": 999,
        "meta_rev_at_epoch": 97403,
        "meta_bstar": 0.00044739,
        "meta_mean_motion_dot": 8.75e-06,
        "meta_mean_motion_ddot": 0,
        "tle_line1": "1 30234U 99025WT  25342.98307441  .00000875  00000+0  44739-3 0  9998",
        "tle_line2": "2 30234  98.6338 353.8714 0067071  85.8232 333.8364 14.16856230974030"
      },
      "geometry": {
        "type": "Point",
        "coordinates": [
          170.4986156949954,
          -25.4923547578707
        ]
      }
    },
    {
      "type": "Feature",
      "properties": {
        "norad_id": 30235,
        "name": "FENGYUN 1C DEB",
        "group": "fengyun-1c-debris",
        "lat": -70.03185187847423,
        "lon": 156.96282979497482,
        "alt_km": 760.2003457578812,
        "timestamp": "2025-12-09T18:55:17.506722+00:00",
        "meta_object_name": "FENGYUN 1C DEB",
        "meta_object_id": "1999-025WU",
        "meta_epoch": "2025-12-09T07:37:00.454368",
        "meta_mean_motion": 14.08771869,
        "meta_eccentricity": 0.01533,
        "meta_inclination": 98.7498,
        "meta_ra_of_asc_node": 1.5845,
        "meta_arg_of_pericenter": 248.2676,
        "meta_mean_anomaly": 135.9844,
        "meta_ephemeris_type": 0,
        "meta_classification_type": "U",
        "meta_norad_cat_id": 30235,
        "meta_element_set_no": 999,
        "meta_rev_at_epoch": 96845,
        "meta_bstar": 0.00057337,
        "meta_mean_motion_dot": 1.058e-05,
        "meta_mean_motion_ddot": 0,
        "tle_line1": "1 30235U 99025WU  25343.31736637  .00001058  00000+0  57337-3 0  9992",
        "tle_line2": "2 30235  98.7498   1.5845 0153300 248.2676 135.9844 14.08771869968457"
      },
      "geometry": {
        "type": "Point",
        "coordinates": [
          156.96282979497482,
          -70.03185187847423
        ]
      }
    },
    {
      "type": "Feature",
      "properties": {
        "norad_id": 30237,
        "name": "FENGYUN 1C DEB",
        "group": "fengyun-1c-debris",
        "lat": -24.329136592993724,
        "lon": -97.58413336221818,
        "alt_km": 764.5926558229194,
        "timestamp": "2025-12-09T18:55:17.506732+00:00",
        "meta_object_name": "FENGYUN 1C DEB",
        "meta_object_id": "1999-025WW",
        "meta_epoch": "2025-12-09T06:33:39.269088",
        "meta_mean_motion": 14.40806755,
        "meta_eccentricity": 0.0013703,
        "meta_inclination": 98.8257,
        "meta_ra_of_asc_node": 85.9128,
        "meta_arg_of_pericenter": 315.8244,
        "meta_mean_anomaly": 98.9807,
        "meta_ephemeris_type": 0,
        "meta_classification_type": "U",
        "meta_norad_cat_id": 30237,
        "meta_element_set_no": 999,
        "meta_rev_at_epoch": 97648,
        "meta_bstar": 0.003245,
        "meta_mean_motion_dot": 0.00010369,
        "meta_mean_motion_ddot": 0,
        "tle_line1": "1 30237U 99025WW  25343.27337117  .00010369  00000+0  32450-2 0  9992",
        "tle_line2": "2 30237  98.8257  85.9128 0013703 315.8244  98.9807 14.40806755976485"
      },
      "geometry": {
        "type": "Point",
        "coordinates": [
          -97.58413336221818,
          -24.329136592993724
        ]
      }
    },
    {
      "type": "Feature",
      "properties": {
        "norad_id": 30239,
        "name": "FENGYUN 1C DEB",
        "group": "fengyun-1c-debris",
        "lat": 23.496823032313237,
        "lon": 129.0333941993052,
        "alt_km": 864.2671749415595,
        "timestamp": "2025-12-09T18:55:17.506742+00:00",
        "meta_object_name": "FENGYUN 1C DEB",
        "meta_object_id": "1999-025WY",
        "meta_epoch": "2025-12-08T09:03:39.099168",
        "meta_mean_motion": 11.38060578,
        "meta_eccentricity": 0.13460507,
        "meta_inclination": 99.5887,
        "meta_ra_of_asc_node": 132.3018,
        "meta_arg_of_pericenter": 38.3016,
        "meta_mean_anomaly": 330.6281,
        "meta_ephemeris_type": 0,
        "meta_classification_type": "U",
        "meta_norad_cat_id": 30239,
        "meta_element_set_no": 999,
        "meta_rev_at_epoch": 54485,
        "meta_bstar": 0.014654901,
        "meta_mean_motion_dot": 4.849e-05,
        "meta_mean_motion_ddot": 0,
        "tle_line1": "1 30239U 99025WY  25342.37753587  .00004849  00000+0  14655-1 0  9999",
        "tle_line2": "2 30239  99.5887 132.3018 1346050  38.3016 330.6281 11.38060578544851"
      },
      "geometry": {
        "type": "Point",
        "coordinates": [
          129.0333941993052,
          23.496823032313237
        ]
      }
    },
    {
      "type": "Feature",
      "properties": {
        "norad_id": 30241,
        "name": "FENGYUN 1C DEB",
        "group": "fengyun-1c-debris",
        "lat": 70.93271472784032,
        "lon": -35.59013593522162,
        "alt_km": 752.5014462541976,
        "timestamp": "2025-12-09T18:55:17.506753+00:00",
        "meta_object_name": "FENGYUN 1C DEB",
        "meta_object_id": "1999-025XA",
        "meta_epoch": "2025-12-09T15:06:57.775968",
        "meta_mean_motion": 14.0954175,
        "meta_eccentricity": 0.01468144,
        "meta_inclination": 99.1484,
        "meta_ra_of_asc_node": 116.4601,
        "meta_arg_of_pericenter": 89.7461,
        "meta_mean_anomaly": 292.3673,
        "meta_ephemeris_type": 0,
        "meta_classification_type": "U",
        "meta_norad_cat_id": 30241,
        "meta_element_set_no": 999,
        "meta_rev_at_epoch": 96868,
        "meta_bstar": 0.00038339437,
        "meta_mean_motion_dot": 6.96e-06,
        "meta_mean_motion_ddot": 0,
        "tle_line1": "1 30241U 99025XA  25343.62983537  .00000696  00000+0  38339-3 0  9994",
        "tle_line2": "2 30241  99.1484 116.4601 0146814  89.7461 292.3673 14.09541750968680"
      },
      "geometry": {
        "type": "Point",
        "coordinates": [
          -35.59013593522162,
          70.93271472784032
        ]
      }
    },
    {
      "type": "Feature",
      "properties": {
        "norad_id": 30242,
        "name": "FENGYUN 1C DEB",
        "group": "fengyun-1c-debris",
        "lat": -44.049403153644874,
        "lon": 26.527232174061655,
        "alt_km": 842.423460249498,
        "timestamp": "2025-12-09T18:55:17.506763+00:00",
        "meta_object_name": "FENGYUN 1C DEB",
        "meta_object_id": "1999-025XB",
        "meta_epoch": "2025-12-09T02:29:01.776192",
        "meta_mean_motion": 14.17624296,
        "meta_eccentricity": 0.00112202,
        "meta_inclination": 98.6835,
        "meta_ra_of_asc_node": 17.3564,
        "meta_arg_of_pericenter": 64.6052,
        "meta_mean_anomaly": 357.5015,
        "meta_ephemeris_type": 0,
        "meta_classification_type": "U",
        "meta_norad_cat_id": 30242,
        "meta_element_set_no": 999,
        "meta_rev_at_epoch": 97375,
        "meta_bstar": 0.0008111691,
        "meta_mean_motion_dot": 1.607e-05,
        "meta_mean_motion_ddot": 0,
        "tle_line1": "1 30242U 99025XB  25343.10349278  .00001607  00000+0  81117-3 0  9991",
        "tle_line2": "2 30242  98.6835  17.3564 0011220  64.6052 357.5015 14.17624296973756"
      },
      "geometry": {
        "type": "Point",
        "coordinates": [
          26.527232174061655,
          -44.049403153644874
        ]
      }
    }
  ]
}